STARLINK-2166           
1 48558U 21041F   26068.54016696  .00002137  00000+0  84270-4 0  9994
2 48558  53.1605 127.4061 0001309  94.8263 265.2887 15.30192658264390
AL MUNTHER              
1 63240U 25052AG  26068.64540749  .00017933  00000+0  65015-3 0  9992
2 63240  97.4001 323.9152 0008027 130.7043 229.4895 15.28381521 54798
